{
  "type": "FeatureCollection",
  "name": "roof",
  "crs": {
    "type": "name",
    "properties": {
      "name": "urn:ogc:def:crs:EPSG::32629"
    }
  },
  "features": [
    {
      "type": "Feature",
      "properties": {
        "building": "B1001",
        "roof_id": "1"
      },
      "geometry": {
        "type": "Polygon",
        "coordinates": [
          [
            [
              487468.11649797467,
              4287439.410023974,
              7.053308010101318
            ],
            [
              487468.12608062336,
              4287439.222698772,
              7.088147163391113
            ],
            [
              487468.6475577978,
              4287413.012832437,
              11.968378067016602
            ],
            [
              487468.7178324733,
              4287413.013497817,
              11.974235534667969
            ],
            [
              487474.37044827954,
              4287413.129490187,
              12.457534790039062
            ],
            [
              487474.36741711124,
              4287413.44963038,
              12.396604537963867
            ],
            [
              487473.8394623794,
              4287439.518873709,
              7.5424652099609375
            ],
            [
              487473.7926125954,
              4287439.518430122,
              7.538777828216553
            ],
            [
              487468.11649797467,
              4287439.410023974,
              7.053308010101318
            ]
          ]
        ]
      }
    },
    {
      "type": "Feature",
      "properties": {
        "building": "B1001",
        "roof_id": "2"
      },
      "geometry": {
        "type": "Polygon",
        "coordinates": [
          [
            [
              487479.4920782369,
              4287439.6348663615,
              12.02912425994873
            ],
            [
              487479.5623529137,
              4287439.635531742,
              12.024499893188477
            ],
            [
              487480.0837561823,
              4287413.433473148,
              7.241512775421143
            ],
            [
              487480.093412753,
              4287413.238339643,
              7.2066240310668945
            ],
            [
              487474.41729806364,
              4287413.1299337745,
              7.588144779205322
            ],
            [
              487474.37044827954,
              4287413.129490187,
              7.591062068939209
            ],
            [
              487473.8424935632,
              4287439.198733518,
              12.34943962097168
            ],
            [
              487473.8394623794,
              4287439.518873709,
              12.408937454223633
            ],
            [
              487479.4920782369,
              4287439.6348663615,
              12.02912425994873
            ]
          ]
        ]
      }
    },
    {
      "type": "Feature",
      "properties": {
        "building": "B1002",
        "roof_id": "1"
      },
      "geometry": {
        "type": "Polygon",
        "coordinates": [
          [
            [
              487499.26204495184,
              4287434.941430796,
              7.594560146331787
            ],
            [
              487499.3245113335,
              4287434.942022244,
              7.594004154205322
            ],
            [
              487499.8813108482,
              4287414.073843273,
              12.346585273742676
            ],
            [
              487499.8837505693,
              4287413.816169448,
              12.405996322631836
            ],
            [
              487492.0532848364,
              4287413.609275655,
              12.478343963623047
            ],
            [
              487491.9595852652,
              4287413.608388485,
              12.47925853729248
            ],
            [
              487491.4018985984,
              4287434.570266722,
              7.704338073730469
            ],
            [
              487491.3926116759,
              4287434.726358742,
              7.667265892028809
            ],
            [
              487499.26204495184,
              4287434.941430796,
              7.594560146331787
            ]
          ]
        ]
      }
    },
    {
      "type": "Feature",
      "properties": {
        "building": "B1002",
        "roof_id": "2"
      },
      "geometry": {
        "type": "Polygon",
        "coordinates": [
          [
            [
              487499.3245113335,
              4287434.942022244,
              12.51463794708252
            ],
            [
              487499.3270249958,
              4287434.676540123,
              12.452013969421387
            ],
            [
              487499.8837505693,
              4287413.816169448,
              7.4853620529174805
            ],
            [
              487499.9462169511,
              4287413.816760898,
              7.487070083618164
            ],
            [
              487507.8156503569,
              4287414.031832646,
              7.713565826416016
            ],
            [
              487507.8062895091,
              4287414.19573297,
              7.752555847167969
            ],
            [
              487507.2486767413,
              4287435.149803526,
              12.742841720581055
            ],
            [
              487507.1471688695,
              4287435.148842419,
              12.739934921264648
            ],
            [
              487499.3245113335,
              4287434.942022244,
              12.51463794708252
            ]
          ]
        ]
      }
    },
    {
      "type": "Feature",
      "properties": {
        "building": "B1003",
        "roof_id": "1"
      },
      "geometry": {
        "type": "Polygon",
        "coordinates": [
          [
            [
              487503.22561770456,
              4287437.774580265,
              8.109450340270996
            ],
            [
              487503.2665814068,
              4287437.57193418,
              8.129714012145996
            ],
            [
              487507.9212528114,
              4287412.775583865,
              10.602113723754883
            ],
            [
              487507.9914535612,
              4287412.784057541,
              10.608948707580566
            ],
            [
              487514.38338998053,
              4287413.992500698,
              11.246332168579102
            ],
            [
              487514.3338786791,
              4287414.273155836,
              11.218368530273438
            ],
            [
              487509.69563699333,
              4287438.9837630205,
              8.753667831420898
            ],
            [
              487509.6410528396,
              4287438.975437204,
              8.748031616210938
            ],
            [
              487503.22561770456,
              4287437.774580265,
              8.109450340270996
            ]
          ]
        ]
      }
    },
    {
      "type": "Feature",
      "properties": {
        "building": "B1003",
        "roof_id": "2"
      },
      "geometry": {
        "type": "Polygon",
        "coordinates": [
          [
            [
              487516.08764730906,
              4287440.184398194,
              10.718012809753418
            ],
            [
              487516.1577741281,
              4287440.20068017,
              10.710819244384766
            ],
            [
              487520.8202540567,
              4287415.404403214,
              7.968721866607666
            ],
            [
              487520.8534094539,
              4287415.201683189,
              7.946695804595947
            ],
            [
              487514.44578243315,
              4287414.000900442,
              8.612157821655273
            ],
            [
              487514.38338998053,
              4287413.992500698,
              8.617938995361328
            ],
            [
              487509.74514830747,
              4287438.703107886,
              11.350687026977539
            ],
            [
              487509.69563699333,
              4287438.9837630205,
              11.382061004638672
            ],
            [
              487516.08764730906,
              4287440.184398194,
              10.718012809753418
            ]
          ]
        ]
      }
    },
    {
      "type": "Feature",
      "properties": {
        "building": "B1004",
        "roof_id": "1"
      },
      "geometry": {
        "type": "Polygon",
        "coordinates": [
          [
            [
              487485.0049524205,
              4287446.262239821,
              6.129874229431152
            ],
            [
              487485.0439199767,
              4287446.270417777,
              6.132547855377197
            ],
            [
              487485.9986751929,
              4287413.887735972,
              13.761012077331543
            ],
            [
              487486.010771485,
              4287413.434928646,
              13.867452621459961
            ],
            [
              487480.0151079858,
              4287413.261025228,
              13.437049865722656
            ],
            [
              487479.93702501146,
              4287413.260285917,
              13.431187629699707
            ],
            [
              487478.9642135085,
              4287445.90049331,
              5.740685939788818
            ],
            [
              487478.9624391547,
              4287446.087892448,
              5.696281909942627
            ],
            [
              487485.0049524205,
              4287446.262239821,
              6.129874229431152
            ]
          ]
        ]
      }
    },
    {
      "type": "Feature",
      "properties": {
        "building": "B1004",
        "roof_id": "2"
      },
      "geometry": {
        "type": "Polygon",
        "coordinates": [
          [
            [
              487491.0317752276,
              4287446.444247633,
              13.787246704101562
            ],
            [
              487491.1176665012,
              4287446.445060879,
              13.78361988067627
            ],
            [
              487492.090478051,
              4287413.80485275,
              5.736691951751709
            ],
            [
              487492.0922523935,
              4287413.617453609,
              5.6902618408203125
            ],
            [
              487486.04973904166,
              4287413.443106599,
              5.951756000518799
            ],
            [
              487486.010771485,
              4287413.434928646,
              5.9533209800720215
            ],
            [
              487485.05609022727,
              4287445.809802155,
              13.933906555175781
            ],
            [
              487485.0439199767,
              4287446.270417777,
              14.04667854309082
            ],
            [
              487491.0317752276,
              4287446.444247633,
              13.787246704101562
            ]
          ]
        ]
      }
    },
    {
      "type": "Feature",
      "properties": {
        "building": "B1005",
        "roof_id": "1"
      },
      "geometry": {
        "type": "Polygon",
        "coordinates": [
          [
            [
              487402.6165862125,
              4287449.925479805,
              6.593778133392334
            ],
            [
              487402.61592082924,
              4287449.995754473,
              6.597978115081787
            ],
            [
              487423.2624101926,
              4287445.099776296,
              13.62338638305664
            ],
            [
              487423.54424818465,
              4287445.024354859,
              13.720417976379395
            ],
            [
              487403.05651227845,
              4287438.926769344,
              6.007802963256836
            ],
            [
              487402.92406696634,
              4287438.894279328,
              5.96118688583374
            ],
            [
              487402.6165862125,
              4287449.925479805,
              6.593778133392334
            ]
          ]
        ]
      }
    },
    {
      "type": "Feature",
      "properties": {
        "building": "B1005",
        "roof_id": "2"
      },
      "geometry": {
        "type": "Polygon",
        "coordinates": [
          [
            [
              487423.26516840066,
              4287450.581718039,
              6.190025806427002
            ],
            [
              487423.3822928498,
              4287450.582827011,
              6.145145893096924
            ],
            [
              487423.5438045963,
              4287445.07120464,
              6.3733320236206055
            ],
            [
              487423.54424818465,
              4287445.024354859,
              6.374795913696289
            ],
            [
              487402.89768487983,
              4287449.928141339,
              13.302163124084473
            ],
            [
              487402.61592082924,
              4287449.995754473,
              13.395554542541504
            ],
            [
              487423.26516840066,
              4287450.581718039,
              6.190025806427002
            ]
          ]
        ]
      }
    },
    {
      "type": "Feature",
      "properties": {
        "building": "B1007",
        "roof_id": "1"
      },
      "geometry": {
        "type": "Polygon",
        "coordinates": [
          [
            [
              487395.3402595389,
              4287482.740268282,
              10.0
            ],
            [
              487395.36597631767,
              4287482.498432894,
              10.0
            ],
            [
              487427.0383088697,
              4287485.8984903535,
              10.0
            ],
            [
              487427.35815330513,
              4287485.9327547485,
              10.0
            ],
            [
              487424.80652713537,
              4287509.647944797,
              10.0
            ],
            [
              487424.78081034316,
              4287509.889780197,
              10.0
            ],
            [
              487393.10847805976,
              4287506.489721339,
              10.0
            ],
            [
              487392.7886336457,
              4287506.455456931,
              10.0
            ],
            [
              487395.3402595389,
              4287482.740268282,
              10.0
            ]
          ]
        ]
      }
    },
    {
      "type": "Feature",
      "properties": {
        "building": "B1008",
        "roof_id": "1"
      },
      "geometry": {
        "type": "Polygon",
        "coordinates": [
          [
            [
              487492.3414150732,
              4287517.612234125,
              8.257275581359863
            ],
            [
              487492.4194241169,
              4287517.620781749,
              8.26622486114502
            ],
            [
              487496.4260558463,
              4287493.638241408,
              11.693227767944336
            ],
            [
              487496.48337548546,
              4287493.357660218,
              11.73377513885498
            ],
            [
              487487.213134929,
              4287491.809603318,
              10.661639213562012
            ],
            [
              487487.11177492514,
              4287491.793025606,
              10.65008544921875
            ],
            [
              487483.08841776155,
              4287515.892542141,
              7.207528114318848
            ],
            [
              487483.0557059232,
              4287516.04841236,
              7.1825361251831055
            ],
            [
              487492.3414150732,
              4287517.612234125,
              8.257275581359863
            ]
          ]
        ]
      }
    },
    {
      "type": "Feature",
      "properties": {
        "building": "B1008",
        "roof_id": "2"
      },
      "geometry": {
        "type": "Polygon",
        "coordinates": [
          [
            [
              487501.68185639614,
              4287519.168765173,
              10.723326683044434
            ],
            [
              487501.783216402,
              4287519.18534289,
              10.71107006072998
            ],
            [
              487505.80657384347,
              4287495.085825543,
              7.028994083404541
            ],
            [
              487505.83935960924,
              4287494.922147019,
              7.002930164337158
            ],
            [
              487496.55357623246,
              4287493.366133903,
              8.136630058288574
            ],
            [
              487496.48337548546,
              4287493.357660218,
              8.145930290222168
            ],
            [
              487492.4689354707,
              4287517.340126629,
              11.81027603149414
            ],
            [
              487492.4194241169,
              4287517.620781749,
              11.854069709777832
            ],
            [
              487501.68185639614,
              4287519.168765173,
              10.723326683044434
            ]
          ]
        ]
      }
    },
    {
      "type": "Feature",
      "properties": {
        "building": "B1009",
        "roof_id": "1"
      },
      "geometry": {
        "type": "Polygon",
        "coordinates": [
          [
            [
              487466.5531870249,
              4287498.126690416,
              10.0
            ],
            [
              487466.70147074026,
              4287498.135903423,
              10.0
            ],
            [
              487481.3291640725,
              4287499.63316999,
              10.0
            ],
            [
              487481.3205425211,
              4287499.71898733,
              10.0
            ],
            [
              487480.5029737125,
              4287507.7154686535,
              10.0
            ],
            [
              487480.3547639257,
              4287507.698447344,
              10.0
            ],
            [
              487465.72707064,
              4287506.20118056,
              10.0
            ],
            [
              487465.73561826,
              4287506.12317152,
              10.0
            ],
            [
              487466.5531870249,
              4287498.126690416,
              10.0
            ]
          ]
        ]
      }
    },
    {
      "type": "Feature",
      "properties": {
        "building": "B1010",
        "roof_id": "1"
      },
      "geometry": {
        "type": "Polygon",
        "coordinates": [
          [
            [
              487497.8852932345,
              4287473.130012069,
              6.986055850982666
            ],
            [
              487497.9179311296,
              4287472.98195014,
              7.014512062072754
            ],
            [
              487501.88991548424,
              4287451.833747398,
              11.04273796081543
            ],
            [
              487501.9599683694,
              4287451.857837676,
              11.053632736206055
            ],
            [
              487507.7205414822,
              4287452.943168363,
              12.028341293334961
            ],
            [
              487507.67132588685,
              4287453.192590305,
              11.979743003845215
            ],
            [
              487503.70825871365,
              4287474.22374273,
              7.971659183502197
            ],
            [
              487503.66929115664,
              4287474.2155647725,
              7.963809967041016
            ],
            [
              487497.8852932345,
              4287473.130012069,
              6.986055850982666
            ]
          ]
        ]
      }
    },
    {
      "type": "Feature",
      "properties": {
        "building": "B1010",
        "roof_id": "2"
      },
      "geometry": {
        "type": "Polygon",
        "coordinates": [
          [
            [
              487503.70825871365,
              4287474.22374273,
              12.184870719909668
            ],
            [
              487503.75754825026,
              4287473.966512493,
              12.131856918334961
            ],
            [
              487507.7205414822,
              4287452.943168363,
              7.815130233764648
            ],
            [
              487507.7595090399,
              4287452.951346318,
              7.807674884796143
            ],
            [
              487513.5435071064,
              4287454.036898823,
              6.860373020172119
            ],
            [
              487513.51086921594,
              4287454.184960757,
              6.8904829025268555
            ],
            [
              487509.53895862,
              4287475.3253556425,
              11.230113983154297
            ],
            [
              487509.4688318028,
              4287475.30907366,
              11.240846633911133
            ],
            [
              487503.70825871365,
              4287474.22374273,
              12.184870719909668
            ]
          ]
        ]
      }
    },
    {
      "type": "Feature",
      "properties": {
        "building": "B1013",
        "roof_id": "1"
      },
      "geometry": {
        "type": "Polygon",
        "coordinates": [
          [
            [
              487509.1780316454,
              4287453.238092278,
              8.611127853393555
            ],
            [
              487509.2169992032,
              4287453.246270232,
              8.61580753326416
            ],
            [
              487511.79892402334,
              4287439.526880432,
              11.352763175964355
            ],
            [
              487511.83163584117,
              4287439.3710102,
              11.38419246673584
            ],
            [
              487507.56766824535,
              4287438.573164883,
              10.84658432006836
            ],
            [
              487507.52089238964,
              4287438.564912997,
              10.840689659118652
            ],
            [
              487504.93078965804,
              4287452.323270251,
              8.094715118408203
            ],
            [
              487504.90632972366,
              4287452.432364625,
              8.072305679321289
            ],
            [
              487509.1780316454,
              4287453.238092278,
              8.611127853393555
            ]
          ]
        ]
      }
    },
    {
      "type": "Feature",
      "properties": {
        "building": "B1013",
        "roof_id": "2"
      },
      "geometry": {
        "type": "Polygon",
        "coordinates": [
          [
            [
              487513.4809667917,
              4287454.044115669,
              10.872673034667969
            ],
            [
              487513.52774264757,
              4287454.052367557,
              10.866971969604492
            ],
            [
              487516.1178454624,
              4287440.294010092,
              8.106867790222168
            ],
            [
              487516.14230539475,
              4287440.184915714,
              8.084309577941895
            ],
            [
              487511.8706033993,
              4287439.379188155,
              8.604155540466309
            ],
            [
              487511.83163584117,
              4287439.3710102,
              8.608668327331543
            ],
            [
              487509.2497849564,
              4287453.082591706,
              11.359721183776855
            ],
            [
              487509.2169992032,
              4287453.246270232,
              11.391331672668457
            ],
            [
              487513.4809667917,
              4287454.044115669,
              10.872673034667969
            ]
          ]
        ]
      }
    },
    {
      "type": "Feature",
      "properties": {
        "building": "B1014",
        "roof_id": "1"
      },
      "geometry": {
        "type": "Polygon",
        "coordinates": [
          [
            [
              487424.61698397854,
              4287509.8726110235,
              6.43782377243042
            ],
            [
              487424.6343010155,
              4287509.6931680655,
              6.465075969696045
            ],
            [
              487427.5986525222,
              4287481.975870566,
              10.65304946899414
            ],
            [
              487427.7390539985,
              4287481.9928179355,
              10.668566703796387
            ],
            [
              487440.4860557435,
              4287483.355141914,
              12.107611656188965
            ],
            [
              487440.45164348214,
              4287483.690602951,
              12.05678939819336
            ],
            [
              487437.50438706443,
              4287511.251883031,
              7.892387866973877
            ],
            [
              487437.4030270704,
              4287511.235305317,
              7.880924224853516
            ],
            [
              487424.61698397854,
              4287509.8726110235,
              6.43782377243042
            ]
          ]
        ]
      }
    },
    {
      "type": "Feature",
      "properties": {
        "building": "B1014",
        "roof_id": "2"
      },
      "geometry": {
        "type": "Polygon",
        "coordinates": [
          [
            [
              487450.25131504214,
              4287512.62201602,
              10.958118438720703
            ],
            [
              487450.39179045585,
              4287512.631155101,
              10.941368103027344
            ],
            [
              487453.3562901048,
              4287484.8982396955,
              6.0312819480896
            ],
            [
              487453.37345927034,
              4287484.734413321,
              6.001488208770752
            ],
            [
              487440.58748967084,
              4287483.363911325,
              7.518566131591797
            ],
            [
              487440.4860557435,
              4287483.355141914,
              7.530059814453125
            ],
            [
              487437.5388732753,
              4287510.908613701,
              12.40864372253418
            ],
            [
              487437.50438706443,
              4287511.251883031,
              12.469940185546875
            ],
            [
              487450.25131504214,
              4287512.62201602,
              10.958118438720703
            ]
          ]
        ]
      }
    },
    {
      "type": "Feature",
      "properties": {
        "building": "B1015",
        "roof_id": "1"
      },
      "geometry": {
        "type": "Polygon",
        "coordinates": [
          [
            [
              487483.0240498175,
              4287474.855650815,
              7.818821907043457
            ],
            [
              487483.0486576192,
              4287474.730939851,
              7.824034214019775
            ],
            [
              487508.53790394095,
              4287478.783072341,
              12.778308868408203
            ],
            [
              487508.8732171573,
              4287478.833101198,
              12.842435836791992
            ],
            [
              487506.33224348904,
              4287494.825296869,
              12.184086799621582
            ],
            [
              487506.29916199495,
              4287495.020208587,
              12.175966262817383
            ],
            [
              487480.66170610534,
              4287490.9510540385,
              7.193665981292725
            ],
            [
              487480.474602695,
              4287490.91804648,
              7.157564163208008
            ],
            [
              487483.0240498175,
              4287474.855650815,
              7.818821907043457
            ]
          ]
        ]
      }
    },
    {
      "type": "Feature",
      "properties": {
        "building": "B1016",
        "roof_id": "1"
      },
      "geometry": {
        "type": "Polygon",
        "coordinates": [
          [
            [
              487450.2980169594,
              4287512.638076209,
              7.179972171783447
            ],
            [
              487450.32314229495,
              4287512.458707177,
              7.209187984466553
            ],
            [
              487453.17324141413,
              4287486.911227763,
              11.232489585876465
            ],
            [
              487453.25905874977,
              4287486.919849313,
              11.241413116455078
            ],
            [
              487460.4747100272,
              4287487.730024644,
              12.02625846862793
            ],
            [
              487460.44059349,
              4287488.034252504,
              11.977718353271484
            ],
            [
              487457.60736772773,
              4287513.449139071,
              7.9737420082092285
            ],
            [
              487457.54490135086,
              4287513.448547612,
              7.967416763305664
            ],
            [
              487450.2980169594,
              4287512.638076209,
              7.179972171783447
            ]
          ]
        ]
      }
    },
    {
      "type": "Feature",
      "properties": {
        "building": "B1016",
        "roof_id": "2"
      },
      "geometry": {
        "type": "Polygon",
        "coordinates": [
          [
            [
              487464.82294509525,
              4287514.267123063,
              11.057024002075195
            ],
            [
              487464.90876243217,
              4287514.275744615,
              11.048164367675781
            ],
            [
              487467.7587877751,
              4287488.736072816,
              7.376706123352051
            ],
            [
              487467.7839870355,
              4287488.548895478,
              7.34942102432251
            ],
            [
              487460.53710247244,
              4287487.738424397,
              8.144103050231934
            ],
            [
              487460.4747100272,
              4287487.730024644,
              8.150628089904785
            ],
            [
              487457.6414103467,
              4287513.152719511,
              11.805706024169922
            ],
            [
              487457.60736772773,
              4287513.449139071,
              11.849371910095215
            ],
            [
              487464.82294509525,
              4287514.267123063,
              11.057024002075195
            ]
          ]
        ]
      }
    },
    {
      "type": "Feature",
      "properties": {
        "building": "B1018",
        "roof_id": "1"
      },
      "geometry": {
        "type": "Polygon",
        "coordinates": [
          [
            [
              487396.54847535817,
              4287482.970360028,
              10.0
            ],
            [
              487396.39260516147,
              4287482.937648203,
              10.0
            ],
            [
              487400.4865931357,
              4287461.275210945,
              10.0
            ],
            [
              487400.5355129991,
              4287461.057022238,
              10.0
            ],
            [
              487416.25034921104,
              4287464.024863444,
              10.0
            ],
            [
              487416.40621941455,
              4287464.057575264,
              10.0
            ],
            [
              487412.3123051463,
              4287485.712204847,
              10.0
            ],
            [
              487412.27111963637,
              4287485.938275784,
              10.0
            ],
            [
              487396.54847535817,
              4287482.970360028,
              10.0
            ]
          ]
        ]
      }
    },
    {
      "type": "Feature",
      "properties": {
        "building": "B1020",
        "roof_id": "1"
      },
      "geometry": {
        "type": "Polygon",
        "coordinates": [
          [
            [
              487456.05436226976,
              4287448.190263727,
              5.771341800689697
            ],
            [
              487456.08552152663,
              4287448.198367748,
              5.775852203369141
            ],
            [
              487462.22613469337,
              4287412.444447965,
              14.104985237121582
            ],
            [
              487462.3169054029,
              4287411.9299135925,
              14.22414779663086
            ],
            [
              487456.0798047837,
              4287410.863498537,
              13.453113555908203
            ],
            [
              487455.9940613776,
              4287410.847068702,
              13.442599296569824
            ],
            [
              487449.80349348177,
              4287446.928492974,
              5.036856174468994
            ],
            [
              487449.7705598711,
              4287447.107788079,
              4.994303226470947
            ],
            [
              487456.05436226976,
              4287448.190263727,
              5.771341800689697
            ]
          ]
        ]
      }
    },
    {
      "type": "Feature",
      "properties": {
        "building": "B1020",
        "roof_id": "2"
      },
      "geometry": {
        "type": "Polygon",
        "coordinates": [
          [
            [
              487462.3226220768,
              4287449.264783237,
              13.930610656738281
            ],
            [
              487462.40836548293,
              4287449.281213079,
              13.918841361999512
            ],
            [
              487468.60696376197,
              4287413.176437024,
              4.433667182922363
            ],
            [
              487468.63186727243,
              4287413.020492872,
              4.391426086425781
            ],
            [
              487462.3480646606,
              4287411.938017614,
              5.231872081756592
            ],
            [
              487462.3169054029,
              4287411.9299135925,
              5.236291885375977
            ],
            [
              487456.1843223608,
              4287447.660482427,
              14.624375343322754
            ],
            [
              487456.08552152663,
              4287448.198367748,
              14.763708114624023
            ],
            [
              487462.3226220768,
              4287449.264783237,
              13.930610656738281
            ]
          ]
        ]
      }
    },
    {
      "type": "Feature",
      "properties": {
        "building": "B1021",
        "roof_id": "1"
      },
      "geometry": {
        "type": "Polygon",
        "coordinates": [
          [
            [
              487443.613242854,
              4287445.862521124,
              6.676715850830078
            ],
            [
              487443.65228433855,
              4287445.862890781,
              6.679640769958496
            ],
            [
              487449.51703641465,
              4287412.027373141,
              13.2324857711792
            ],
            [
              487449.5994073775,
              4287411.575231226,
              13.320359230041504
            ],
            [
              487443.2767113628,
              4287410.476769768,
              12.887911796569824
            ],
            [
              487443.1909679587,
              4287410.460339936,
              12.882265090942383
            ],
            [
              487437.28488268855,
              4287444.537544738,
              6.283273220062256
            ],
            [
              487437.2437711257,
              4287444.755807392,
              6.24154806137085
            ],
            [
              487443.613242854,
              4287445.862521124,
              6.676715850830078
            ]
          ]
        ]
      }
    },
    {
      "type": "Feature",
      "properties": {
        "building": "B1021",
        "roof_id": "2"
      },
      "geometry": {
        "type": "Polygon",
        "coordinates": [
          [
            [
              487449.9749802901,
              4287446.961352653,
              12.965818405151367
            ],
            [
              487450.06072369433,
              4287446.977782493,
              12.960936546325684
            ],
            [
              487455.96680925007,
              4287412.900576905,
              6.328370094299316
            ],
            [
              487456.00792080146,
              4287412.682314241,
              6.286129951477051
            ],
            [
              487449.63844886253,
              4287411.575600877,
              6.660089015960693
            ],
            [
              487449.5994073775,
              4287411.575231226,
              6.662596225738525
            ],
            [
              487443.734655329,
              4287445.410748873,
              13.248969078063965
            ],
            [
              487443.65228433855,
              4287445.862890781,
              13.337403297424316
            ],
            [
              487449.9749802901,
              4287446.961352653,
              12.965818405151367
            ]
          ]
        ]
      }
    }
  ]
}