{
  "type": "FeatureCollection",
  "name": "roof_surfaces",
  "crs": {
    "type": "name",
    "properties": {
      "name": "urn:ogc:def:crs:EPSG::32629"
    }
  },
  "features": [
    {
      "type": "Feature",
      "properties": {
        "building": "B1000",
        "roof_id": "1"
      },
      "geometry": {
        "type": "Polygon",
        "coordinates": [
          [
            [
              487405.74638676643,
              4287411.331817768,
              5.836756229400635
            ],
            [
              487405.8557029155,
              4287411.3328528,
              5.864552021026611
            ],
            [
              487424.55346792284,
              4287411.837865786,
              10.576346397399902
            ],
            [
              487424.3477906975,
              4287412.117042261,
              10.514392852783203
            ],
            [
              487405.0235659946,
              4287438.187921356,
              4.6840620040893555
            ],
            [
              487405.0247488953,
              4287438.062988616,
              4.689467906951904
            ],
            [
              487405.74638676643,
              4287411.331817768,
              5.836756229400635
            ]
          ]
        ]
      }
    },
    {
      "type": "Feature",
      "properties": {
        "building": "B1000",
        "roof_id": "2"
      },
      "geometry": {
        "type": "Polygon",
        "coordinates": [
          [
            [
              487424.55346792284,
              4287411.837865786,
              6.906228065490723
            ],
            [
              487424.676626327,
              4287412.0264478,
              6.958486080169678
            ],
            [
              487442.6377288837,
              4287439.200019293,
              14.416279792785645
            ],
            [
              487442.0990303298,
              4287439.187109737,
              14.378249168395996
            ],
            [
              487405.0235659946,
              4287438.187921356,
              11.771265029907227
            ],
            [
              487405.2529638405,
              4287437.87773351,
              11.714274406433105
            ],
            [
              487424.55346792284,
              4287411.837865786,
              6.906228065490723
            ]
          ]
        ]
      }
    },
    {
      "type": "Feature",
      "properties": {
        "building": "B1000",
        "roof_id": "3"
      },
      "geometry": {
        "type": "Polygon",
        "coordinates": [
          [
            [
              487443.3604758048,
              4287412.351722128,
              4.120981216430664
            ],
            [
              487443.35951470275,
              4287412.453229985,
              4.12755012512207
            ],
            [
              487442.6377288837,
              4287439.200019293,
              5.712282180786133
            ],
            [
              487442.5376996503,
              4287439.042892248,
              5.7322998046875
            ],
            [
              487424.55346792284,
              4287411.837865786,
              9.204350471496582
            ],
            [
              487424.72525044874,
              4287411.839492265,
              9.157796859741211
            ],
            [
              487443.3604758048,
              4287412.351722128,
              4.120981216430664
            ]
          ]
        ]
      }
    },
    {
      "type": "Feature",
      "properties": {
        "building": "B1001",
        "roof_id": "1"
      },
      "geometry": {
        "type": "Polygon",
        "coordinates": [
          [
            [
              487468.11649797467,
              4287439.410023974,
              10.03254508972168
            ],
            [
              487468.12681993656,
              4287439.144615801,
              10.010470390319824
            ],
            [
              487468.6475577978,
              4287413.012832437,
              7.827325820922852
            ],
            [
              487468.6944075814,
              4287413.013276025,
              7.8357110023498535
            ],
            [
              487474.37044827954,
              4287413.129490187,
              8.897390365600586
            ],
            [
              487474.36823035154,
              4287413.36373911,
              8.917054176330566
            ],
            [
              487473.8394623794,
              4287439.518873709,
              11.102609634399414
            ],
            [
              487473.77699600067,
              4287439.518282258,
              11.090742111206055
            ],
            [
              487468.11649797467,
              4287439.410023974,
              10.03254508972168
            ]
          ]
        ]
      }
    },
    {
      "type": "Feature",
      "properties": {
        "building": "B1001",
        "roof_id": "2"
      },
      "geometry": {
        "type": "Polygon",
        "coordinates": [
          [
            [
              487473.8394623794,
              4287439.518873709,
              9.138521194458008
            ],
            [
              487473.8416803188,
              4287439.284624789,
              9.154293060302734
            ],
            [
              487474.37044827954,
              4287413.129490187,
              10.861478805541992
            ],
            [
              487474.43291465845,
              4287413.130081636,
              10.850109100341797
            ],
            [
              487480.093412753,
              4287413.238339643,
              9.813587188720703
            ],
            [
              487480.08316473477,
              4287413.495939528,
              9.796708106994629
            ],
            [
              487479.5623529137,
              4287439.635531742,
              8.090627670288086
            ],
            [
              487479.5155031291,
              4287439.635088155,
              8.099116325378418
            ],
            [
              487473.8394623794,
              4287439.518873709,
              9.138521194458008
            ]
          ]
        ]
      }
    },
    {
      "type": "Feature",
      "properties": {
        "building": "B1002",
        "roof_id": "1"
      },
      "geometry": {
        "type": "Polygon",
        "coordinates": [
          [
            [
              487491.3926116759,
              4287434.726358742,
              8.056586265563965
            ],
            [
              487491.40197252965,
              4287434.562458424,
              8.058828353881836
            ],
            [
              487491.9595852652,
              4287413.608388485,
              8.334684371948242
            ],
            [
              487492.02205164597,
              4287413.608979931,
              8.349747657775879
            ],
            [
              487499.8837505693,
              4287413.816169448,
              10.13904857635498
            ],
            [
              487499.88175443385,
              4287414.026993485,
              10.13623046875
            ],
            [
              487499.3245113335,
              4287434.942022244,
              9.86095142364502
            ],
            [
              487499.2464283563,
              4287434.941282934,
              9.843191146850586
            ],
            [
              487491.3926116759,
              4287434.726358742,
              8.056586265563965
            ]
          ]
        ]
      }
    },
    {
      "type": "Feature",
      "properties": {
        "building": "B1002",
        "roof_id": "2"
      },
      "geometry": {
        "type": "Polygon",
        "coordinates": [
          [
            [
              487507.18621035863,
              4287435.1492120745,
              8.480061531066895
            ],
            [
              487507.2486767413,
              4287435.149803526,
              8.464091300964355
            ],
            [
              487507.8062895091,
              4287414.19573297,
              7.7748541831970215
            ],
            [
              487507.8156503569,
              4287414.031832646,
              7.769452095031738
            ],
            [
              487499.96183354646,
              4287413.816908758,
              9.634536743164062
            ],
            [
              487499.8837505693,
              4287413.816169448,
              9.652680397033691
            ],
            [
              487499.3265814084,
              4287434.72338991,
              10.340136528015137
            ],
            [
              487499.3245113335,
              4287434.942022244,
              10.347319602966309
            ],
            [
              487507.18621035863,
              4287435.1492120745,
              8.480061531066895
            ]
          ]
        ]
      }
    },
    {
      "type": "Feature",
      "properties": {
        "building": "B1003",
        "roof_id": "1"
      },
      "geometry": {
        "type": "Polygon",
        "coordinates": [
          [
            [
              487509.6176279459,
              4287438.975215412,
              10.99972915649414
            ],
            [
              487509.69563699333,
              4287438.9837630205,
              11.007951736450195
            ],
            [
              487514.34227842453,
              4287414.210763384,
              9.010211944580078
            ],
            [
              487514.38338998053,
              4287413.992500698,
              8.992048263549805
            ],
            [
              487507.9758369654,
              4287412.783909679,
              8.250727653503418
            ],
            [
              487507.9212528114,
              4287412.775583865,
              8.244561195373535
            ],
            [
              487503.2749072236,
              4287437.517350027,
              10.239821434020996
            ],
            [
              487503.22561770456,
              4287437.774580265,
              10.260464668273926
            ],
            [
              487509.6176279459,
              4287438.975215412,
              10.99972915649414
            ]
          ]
        ]
      }
    },
    {
      "type": "Feature",
      "properties": {
        "building": "B1003",
        "roof_id": "2"
      },
      "geometry": {
        "type": "Polygon",
        "coordinates": [
          [
            [
              487509.69563699333,
              4287438.9837630205,
              8.96439266204834
            ],
            [
              487509.7366746279,
              4287438.773308636,
              8.982998847961426
            ],
            [
              487514.38338998053,
              4287413.992500698,
              11.03560733795166
            ],
            [
              487514.46139902907,
              4287414.001048304,
              11.02655029296875
            ],
            [
              487520.8534094539,
              4287415.201683189,
              10.214276313781738
            ],
            [
              487520.8041199439,
              4287415.458913439,
              10.193164825439453
            ],
            [
              487516.1577741281,
              4287440.20068017,
              8.143061637878418
            ],
            [
              487516.10318997374,
              4287440.192354355,
              8.14975643157959
            ],
            [
              487509.69563699333,
              4287438.9837630205,
              8.96439266204834
            ]
          ]
        ]
      }
    },
    {
      "type": "Feature",
      "properties": {
        "building": "B1004",
        "roof_id": "1"
      },
      "geometry": {
        "type": "Polygon",
        "coordinates": [
          [
            [
              487478.9624391547,
              4287446.087892448,
              9.659263610839844
            ],
            [
              487478.9732786397,
              4287445.7678261865,
              9.6380615234375
            ],
            [
              487479.93702501146,
              4287413.260285917,
              7.4594831466674805
            ],
            [
              487479.9838747961,
              4287413.260729503,
              7.470244884490967
            ],
            [
              487486.010771485,
              4287413.434928646,
              8.90010929107666
            ],
            [
              487486.00796210935,
              4287413.731643952,
              8.919731140136719
            ],
            [
              487485.0439199767,
              4287446.270417777,
              11.09989070892334
            ],
            [
              487484.97371923045,
              4287446.261944097,
              11.083922386169434
            ],
            [
              487478.9624391547,
              4287446.087892448,
              9.659263610839844
            ]
          ]
        ]
      }
    },
    {
      "type": "Feature",
      "properties": {
        "building": "B1004",
        "roof_id": "2"
      },
      "geometry": {
        "type": "Polygon",
        "coordinates": [
          [
            [
              487491.07081671554,
              4287446.44461729,
              7.879735946655273
            ],
            [
              487491.1176665012,
              4287446.445060879,
              7.867888927459717
            ],
            [
              487492.08163472015,
              4287413.914094985,
              9.113678932189941
            ],
            [
              487492.0922523935,
              4287413.617453609,
              9.125137329101562
            ],
            [
              487486.08097223175,
              4287413.443402322,
              10.61266803741455
            ],
            [
              487486.010771485,
              4287413.434928646,
              10.628623962402344
            ],
            [
              487485.04687723314,
              4287445.958085877,
              9.383172988891602
            ],
            [
              487485.0439199767,
              4287446.270417777,
              9.371376037597656
            ],
            [
              487491.07081671554,
              4287446.44461729,
              7.879735946655273
            ]
          ]
        ]
      }
    },
    {
      "type": "Feature",
      "properties": {
        "building": "B1005",
        "roof_id": "1"
      },
      "geometry": {
        "type": "Polygon",
        "coordinates": [
          [
            [
              487402.92406696634,
              4287438.894279328,
              8.531590461730957
            ],
            [
              487403.11146607803,
              4287438.896053679,
              8.522629737854004
            ],
            [
              487423.7060555994,
              4287439.4814993,
              7.48016881942749
            ],
            [
              487423.5495200105,
              4287439.519062157,
              7.5030198097229
            ],
            [
              487402.77780222264,
              4287444.445090832,
              10.525711059570312
            ],
            [
              487402.7783197425,
              4287444.390432757,
              10.50476360321045
            ],
            [
              487402.92406696634,
              4287438.894279328,
              8.531590461730957
            ]
          ]
        ]
      }
    },
    {
      "type": "Feature",
      "properties": {
        "building": "B1005",
        "roof_id": "2"
      },
      "geometry": {
        "type": "Polygon",
        "coordinates": [
          [
            [
              487423.2109539132,
              4287450.53435074,
              8.43018913269043
            ],
            [
              487423.3822928498,
              4287450.582827011,
              8.419916152954102
            ],
            [
              487423.70479876694,
              4287439.614240344,
              12.255471229553223
            ],
            [
              487423.7060555994,
              4287439.4814993,
              12.303060531616211
            ],
            [
              487402.973453219,
              4287444.400089339,
              9.664262771606445
            ],
            [
              487402.77780222264,
              4287444.445090832,
              9.638511657714844
            ],
            [
              487423.2109539132,
              4287450.53435074,
              8.43018913269043
            ]
          ]
        ]
      }
    },
    {
      "type": "Feature",
      "properties": {
        "building": "B1007",
        "roof_id": "1"
      },
      "geometry": {
        "type": "Polygon",
        "coordinates": [
          [
            [
              487408.78866287344,
              4287508.168751333,
              10.0
            ],
            [
              487408.8143796642,
              4287507.926915944,
              10.0
            ],
            [
              487411.3581234619,
              4287484.219460957,
              10.0
            ],
            [
              487411.52194982325,
              4287484.23663012,
              10.0
            ],
            [
              487427.35815330513,
              4287485.9327547485,
              10.0
            ],
            [
              487427.3324365235,
              4287486.174590151,
              10.0
            ],
            [
              487424.78081034316,
              4287509.889780197,
              10.0
            ],
            [
              487424.6247922751,
              4287509.872684957,
              10.0
            ],
            [
              487408.78866287344,
              4287508.168751333,
              10.0
            ]
          ]
        ]
      }
    },
    {
      "type": "Feature",
      "properties": {
        "building": "B1008",
        "roof_id": "1"
      },
      "geometry": {
        "type": "Polygon",
        "coordinates": [
          [
            [
              487492.31806411286,
              4287517.604204031,
              11.101436614990234
            ],
            [
              487492.4194241169,
              4287517.620781749,
              11.117977142333984
            ],
            [
              487496.4345295328,
              4287493.568040663,
              8.90192699432373
            ],
            [
              487496.48337548546,
              4287493.357660218,
              8.882022857666016
            ],
            [
              487487.181975671,
              4287491.801499292,
              7.403103828430176
            ],
            [
              487487.11177492514,
              4287491.793025606,
              7.392073154449463
            ],
            [
              487483.09681751835,
              4287515.830149693,
              9.606548309326172
            ],
            [
              487483.0557059232,
              4287516.04841236,
              9.62802791595459
            ],
            [
              487492.31806411286,
              4287517.604204031,
              11.101436614990234
            ]
          ]
        ]
      }
    },
    {
      "type": "Feature",
      "properties": {
        "building": "B1008",
        "roof_id": "2"
      },
      "geometry": {
        "type": "Polygon",
        "coordinates": [
          [
            [
              487501.7130156547,
              4287519.1768692015,
              7.245450019836426
            ],
            [
              487501.783216402,
              4287519.18534289,
              7.23392391204834
            ],
            [
              487505.7981740888,
              4287495.148217993,
              9.561882019042969
            ],
            [
              487505.83935960924,
              4287494.922147019,
              9.584356307983398
            ],
            [
              487496.5769271934,
              4287493.374163997,
              11.157466888427734
            ],
            [
              487496.48337548546,
              4287493.357660218,
              11.175216674804688
            ],
            [
              487492.46046178107,
              4287517.410327375,
              8.845574378967285
            ],
            [
              487492.4194241169,
              4287517.620781749,
              8.824783325195312
            ],
            [
              487501.7130156547,
              4287519.1768692015,
              7.245450019836426
            ]
          ]
        ]
      }
    },
    {
      "type": "Feature",
      "properties": {
        "building": "B1009",
        "roof_id": "1"
      },
      "geometry": {
        "type": "Polygon",
        "coordinates": [
          [
            [
              487465.04916391737,
              4287514.2926919935,
              10.0
            ],
            [
              487464.9008802026,
              4287514.28347898,
              10.0
            ],
            [
              487466.5360917871,
              4287498.282708495,
              10.0
            ],
            [
              487466.5531870249,
              4287498.126690416,
              10.0
            ],
            [
              487481.1808803531,
              4287499.623956981,
              10.0
            ],
            [
              487481.3291640725,
              4287499.63316999,
              10.0
            ],
            [
              487479.6939524079,
              4287515.63394091,
              10.0
            ],
            [
              487479.67685716465,
              4287515.789958994,
              10.0
            ],
            [
              487465.04916391737,
              4287514.2926919935,
              10.0
            ]
          ]
        ]
      }
    },
    {
      "type": "Feature",
      "properties": {
        "building": "B1010",
        "roof_id": "1"
      },
      "geometry": {
        "type": "Polygon",
        "coordinates": [
          [
            [
              487503.6458662633,
              4287474.215342978,
              11.402630805969238
            ],
            [
              487503.70825871365,
              4287474.22374273,
              11.41706371307373
            ],
            [
              487507.67979956843,
              4287453.122389555,
              8.607330322265625
            ],
            [
              487507.7205414822,
              4287452.943168363,
              8.58293628692627
            ],
            [
              487501.9366174077,
              4287451.849807582,
              7.326478004455566
            ],
            [
              487501.88991548424,
              4287451.833747398,
              7.317203998565674
            ],
            [
              487497.92633088154,
              4287472.919557691,
              10.12264347076416
            ],
            [
              487497.8852932345,
              4287473.130012069,
              10.15133285522461
            ],
            [
              487503.6458662633,
              4287474.215342978,
              11.402630805969238
            ]
          ]
        ]
      }
    },
    {
      "type": "Feature",
      "properties": {
        "building": "B1010",
        "roof_id": "2"
      },
      "geometry": {
        "type": "Polygon",
        "coordinates": [
          [
            [
              487509.49218276463,
              4287475.317103754,
              7.3311262130737305
            ],
            [
              487509.53895862,
              4287475.3253556425,
              7.321268081665039
            ],
            [
              487513.5024694657,
              4287454.24735321,
              9.962865829467773
            ],
            [
              487513.5435071064,
              4287454.036898823,
              9.989448547363281
            ],
            [
              487507.7829339335,
              4287452.951568113,
              11.318870544433594
            ],
            [
              487507.7205414822,
              4287452.943168363,
              11.334090232849121
            ],
            [
              487503.7490006344,
              4287474.044521539,
              8.689093589782715
            ],
            [
              487503.70825871365,
              4287474.22374273,
              8.665909767150879
            ],
            [
              487509.49218276463,
              4287475.317103754,
              7.3311262130737305
            ]
          ]
        ]
      }
    },
    {
      "type": "Feature",
      "properties": {
        "building": "B1013",
        "roof_id": "1"
      },
      "geometry": {
        "type": "Polygon",
        "coordinates": [
          [
            [
              487504.90632972366,
              4287452.432364625,
              9.674613952636719
            ],
            [
              487504.93101145246,
              4287452.2998453565,
              9.66268253326416
            ],
            [
              487507.52089238964,
              4287438.564912997,
              8.439940452575684
            ],
            [
              487507.5521255811,
              4287438.565208722,
              8.447904586791992
            ],
            [
              487511.83163584117,
              4287439.3710102,
              9.38266372680664
            ],
            [
              487511.8069541152,
              4287439.50352947,
              9.394262313842773
            ],
            [
              487509.2169992032,
              4287453.246270232,
              10.61733627319336
            ],
            [
              487509.1702233475,
              4287453.238018345,
              10.60733699798584
            ],
            [
              487504.90632972366,
              4287452.432364625,
              9.674613952636719
            ]
          ]
        ]
      }
    },
    {
      "type": "Feature",
      "properties": {
        "building": "B1013",
        "roof_id": "2"
      },
      "geometry": {
        "type": "Polygon",
        "coordinates": [
          [
            [
              487513.49650945596,
              4287454.052071829,
              8.478500366210938
            ],
            [
              487513.52774264757,
              4287454.052367557,
              8.470499038696289
            ],
            [
              487516.11762366834,
              4287440.317434984,
              9.630759239196777
            ],
            [
              487516.14230539475,
              4287440.184915714,
              9.64204216003418
            ],
            [
              487511.8784116972,
              4287439.379262086,
              10.575790405273438
            ],
            [
              487511.83163584117,
              4287439.3710102,
              10.585771560668945
            ],
            [
              487509.2416809324,
              4287453.113750965,
              9.425271034240723
            ],
            [
              487509.2169992032,
              4287453.246270232,
              9.414228439331055
            ],
            [
              487513.49650945596,
              4287454.052071829,
              8.478500366210938
            ]
          ]
        ]
      }
    },
    {
      "type": "Feature",
      "properties": {
        "building": "B1014",
        "roof_id": "1"
      },
      "geometry": {
        "type": "Polygon",
        "coordinates": [
          [
            [
              487437.35617728956,
              4287511.234861723,
              11.339191436767578
            ],
            [
              487437.50438706443,
              4287511.251883031,
              11.362763404846191
            ],
            [
              487440.46033896244,
              4287483.5969773205,
              8.660841941833496
            ],
            [
              487440.4860557435,
              4287483.355141914,
              8.637236595153809
            ],
            [
              487427.6843959218,
              4287481.992300412,
              6.572074890136719
            ],
            [
              487427.5986525222,
              4287481.975870566,
              6.558412075042725
            ],
            [
              487424.6428486354,
              4287509.615159032,
              9.258705139160156
            ],
            [
              487424.61698397854,
              4287509.8726110235,
              9.283940315246582
            ],
            [
              487437.35617728956,
              4287511.234861723,
              11.339191436767578
            ]
          ]
        ]
      }
    },
    {
      "type": "Feature",
      "properties": {
        "building": "B1014",
        "roof_id": "2"
      },
      "geometry": {
        "type": "Polygon",
        "coordinates": [
          [
            [
              487437.50438706443,
              4287511.251883031,
              8.592642784118652
            ],
            [
              487437.53002992546,
              4287511.017855925,
              8.616896629333496
            ],
            [
              487440.4860557435,
              4287483.355141914,
              11.407357215881348
            ],
            [
              487440.6343394519,
              4287483.364354917,
              11.379828453063965
            ],
            [
              487453.37345927034,
              4287484.734413321,
              8.98823070526123
            ],
            [
              487453.34766855615,
              4287484.984057031,
              8.96300220489502
            ],
            [
              487450.39179045585,
              4287512.631155101,
              6.173515796661377
            ],
            [
              487450.3059731212,
              4287512.622533548,
              6.188486099243164
            ],
            [
              487437.50438706443,
              4287511.251883031,
              8.592642784118652
            ]
          ]
        ]
      }
    },
    {
      "type": "Feature",
      "properties": {
        "building": "B1015",
        "roof_id": "1"
      },
      "geometry": {
        "type": "Polygon",
        "coordinates": [
          [
            [
              487481.7701039015,
              4287482.754292438,
              9.090496063232422
            ],
            [
              487481.76163021656,
              4287482.824493183,
              9.104188919067383
            ],
            [
              487507.3055345055,
              4287486.877143571,
              10.876324653625488
            ],
            [
              487507.5861896356,
              4287486.926654912,
              10.895811080932617
            ],
            [
              487508.85686124273,
              4287478.9110363135,
              9.403644561767578
            ],
            [
              487508.8732171573,
              4287478.833101198,
              9.389479637145996
            ],
            [
              487483.24356932886,
              4287474.764021335,
              7.6114959716796875
            ],
            [
              487483.0486576192,
              4287474.730939851,
              7.59785795211792
            ],
            [
              487481.7701039015,
              4287482.754292438,
              9.090496063232422
            ]
          ]
        ]
      }
    },
    {
      "type": "Feature",
      "properties": {
        "building": "B1015",
        "roof_id": "2"
      },
      "geometry": {
        "type": "Polygon",
        "coordinates": [
          [
            [
              487481.76163021656,
              4287482.824493183,
              11.067007064819336
            ],
            [
              487482.05009363097,
              4287482.87407845,
              11.043439865112305
            ],
            [
              487507.5861896356,
              4287486.926654912,
              8.932992935180664
            ],
            [
              487507.57771594974,
              4287486.996855659,
              8.920222282409668
            ],
            [
              487506.29916199495,
              4287495.020208587,
              7.501303195953369
            ],
            [
              487506.104250278,
              4287494.987127093,
              7.517344951629639
            ],
            [
              487480.474602695,
              4287490.91804648,
              9.635316848754883
            ],
            [
              487480.4909586104,
              4287490.840111367,
              9.649130821228027
            ],
            [
              487481.76163021656,
              4287482.824493183,
              11.067007064819336
            ]
          ]
        ]
      }
    },
    {
      "type": "Feature",
      "properties": {
        "building": "B1016",
        "roof_id": "1"
      },
      "geometry": {
        "type": "Polygon",
        "coordinates": [
          [
            [
              487450.2980169594,
              4287512.638076209,
              9.96020793914795
            ],
            [
              487450.3316159834,
              4287512.388506435,
              9.936655044555664
            ],
            [
              487453.17324141413,
              4287486.911227763,
              7.589835166931152
            ],
            [
              487453.2278255615,
              4287486.919553584,
              7.599143981933594
            ],
            [
              487460.4747100272,
              4287487.730024644,
              8.814813613891602
            ],
            [
              487460.4491411073,
              4287487.956243465,
              8.8357572555542
            ],
            [
              487457.60736772773,
              4287513.449139071,
              11.185186386108398
            ],
            [
              487457.5214764596,
              4287513.448325816,
              11.171501159667969
            ],
            [
              487450.2980169594,
              4287512.638076209,
              9.96020793914795
            ]
          ]
        ]
      }
    },
    {
      "type": "Feature",
      "properties": {
        "building": "B1016",
        "roof_id": "2"
      },
      "geometry": {
        "type": "Polygon",
        "coordinates": [
          [
            [
              487457.60736772773,
              4287513.449139071,
              8.7838134765625
            ],
            [
              487457.6328627258,
              4287513.230728549,
              8.805230140686035
            ],
            [
              487460.4747100272,
              4287487.730024644,
              11.2161865234375
            ],
            [
              487460.5605273638,
              4287487.7386461925,
              11.203573226928711
            ],
            [
              487467.7839870355,
              4287488.548895478,
              10.090352058410645
            ],
            [
              487467.7503140896,
              4287488.806273557,
              10.065868377685547
            ],
            [
              487464.90876243217,
              4287514.275744615,
              7.657978057861328
            ],
            [
              487464.8541782841,
              4287514.267418791,
              7.666609764099121
            ],
            [
              487457.60736772773,
              4287513.449139071,
              8.7838134765625
            ]
          ]
        ]
      }
    },
    {
      "type": "Feature",
      "properties": {
        "building": "B1018",
        "roof_id": "1"
      },
      "geometry": {
        "type": "Polygon",
        "coordinates": [
          [
            [
              487396.54847535817,
              4287482.970360028,
              10.0
            ],
            [
              487396.39260516147,
              4287482.937648203,
              10.0
            ],
            [
              487400.4865931357,
              4287461.275210945,
              10.0
            ],
            [
              487400.5355129991,
              4287461.057022238,
              10.0
            ],
            [
              487416.25034921104,
              4287464.024863444,
              10.0
            ],
            [
              487416.40621941455,
              4287464.057575264,
              10.0
            ],
            [
              487412.3123051463,
              4287485.712204847,
              10.0
            ],
            [
              487412.27111963637,
              4287485.938275784,
              10.0
            ],
            [
              487396.54847535817,
              4287482.970360028,
              10.0
            ]
          ]
        ]
      }
    },
    {
      "type": "Feature",
      "properties": {
        "building": "B1020",
        "roof_id": "1"
      },
      "geometry": {
        "type": "Polygon",
        "coordinates": [
          [
            [
              487468.51148985233,
              4287413.3629489895,
              9.79197883605957
            ],
            [
              487468.63186727243,
              4287413.020492872,
              9.798898696899414
            ],
            [
              487456.1421972295,
              4287410.8718982795,
              11.990116119384766
            ],
            [
              487455.9940613776,
              4287410.847068702,
              12.016707420349121
            ],
            [
              487456.08877450996,
              4287447.854802677,
              9.118865013122559
            ],
            [
              487456.08552152663,
              4287448.198367748,
              9.092196464538574
            ],
            [
              487468.51148985233,
              4287413.3629489895,
              9.79197883605957
            ]
          ]
        ]
      }
    },
    {
      "type": "Feature",
      "properties": {
        "building": "B1020",
        "roof_id": "2"
      },
      "geometry": {
        "type": "Polygon",
        "coordinates": [
          [
            [
              487449.7705598711,
              4287447.107788079,
              10.410788536071777
            ],
            [
              487449.8365749553,
              4287446.733581275,
              10.380769729614258
            ],
            [
              487455.9940613776,
              4287410.847068702,
              7.519000053405762
            ],
            [
              487455.9913998651,
              4287411.128167399,
              7.548642158508301
            ],
            [
              487456.08552152663,
              4287448.198367748,
              11.445894241333008
            ],
            [
              487456.0153947157,
              4287448.182085772,
              11.434059143066406
            ],
            [
              487449.7705598711,
              4287447.107788079,
              10.410788536071777
            ]
          ]
        ]
      }
    },
    {
      "type": "Feature",
      "properties": {
        "building": "B1021",
        "roof_id": "1"
      },
      "geometry": {
        "type": "Polygon",
        "coordinates": [
          [
            [
              487443.5820835978,
              4287445.854417101,
              11.436759948730469
            ],
            [
              487443.65228433855,
              4287445.862890781,
              11.455060005187988
            ],
            [
              487449.5498221517,
              4287411.863694627,
              8.569879531860352
            ],
            [
              487449.5994073775,
              4287411.575231226,
              8.544939994812012
            ],
            [
              487443.23774380924,
              4287410.468591818,
              6.955977916717529
            ],
            [
              487443.1909679587,
              4287410.460339936,
              6.944847106933594
            ],
            [
              487437.3094165498,
              4287444.420642081,
              9.826371192932129
            ],
            [
              487437.2437711257,
              4287444.755807392,
              9.85496711730957
            ],
            [
              487443.5820835978,
              4287445.854417101,
              11.436759948730469
            ]
          ]
        ]
      }
    },
    {
      "type": "Feature",
      "properties": {
        "building": "B1021",
        "roof_id": "2"
      },
      "geometry": {
        "type": "Polygon",
        "coordinates": [
          [
            [
              487443.65228433855,
              4287445.862890781,
              8.456896781921387
            ],
            [
              487443.7018695819,
              4287445.574427385,
              8.483077049255371
            ],
            [
              487449.5994073775,
              4287411.575231226,
              11.543103218078613
            ],
            [
              487449.6696081196,
              4287411.583704899,
              11.522379875183105
            ],
            [
              487456.00792080146,
              4287412.682314241,
              9.744542121887207
            ],
            [
              487455.950083692,
              4287413.017553501,
              9.714561462402344
            ],
            [
              487450.06072369433,
              4287446.977782493,
              6.658335208892822
            ],
            [
              487450.0140217751,
              4287446.96172231,
              6.670331954956055
            ],
            [
              487443.65228433855,
              4287445.862890781,
              8.456896781921387
            ]
          ]
        ]
      }
    }
  ]
}